STARLINK-11456 [DTC]    
1 62064U 24217H   26165.90043855  .00132580  00000+0  10795-2 0  9990
2 62064  53.1582 311.8880 0001094 106.2907 253.8231 15.69760497 90447
STARLINK-11474 [DTC]    
1 62065U 24217J   26165.69471674  .00208290  00000+0  16805-2 0  9991
2 62065  53.1566 312.7354 0001297  86.0606 274.0561 15.69720829 90415
STARLINK-11463 [DTC]    
1 62066U 24217K   26166.10126164  .00115549  00000+0  94498-3 0  9999
2 62066  53.1584 311.0152 0001197  73.8275 286.2874 15.69720034 90475
STARLINK-11472 [DTC]    
1 62067U 24217L   26166.13559987  .00125914  00000+0  10276-2 0  9994
2 62067  53.1580 311.2417 0000977  58.6212 301.4901 15.69731206 90402
STARLINK-11467 [DTC]    
1 62068U 24217M   26165.90534269  .00163682  00000+0  13259-2 0  9993
2 62068  53.1568 311.9234 0001078 118.5682 241.5445 15.69774131 90448
STARLINK-11460 [DTC]    
1 62069U 24217N   26166.13069640  .00225872  00000+0  18167-2 0  9999
2 62069  53.1571 311.2055 0000867 101.1404 258.9712 15.69739292 90417
STARLINK-32604          
1 62070U 24217P   26166.09314850  .00033317  00000+0  99300-3 0  9992
2 62070  53.1597 100.8045 0001199  74.2570 285.8565 15.34394449 88348
STARLINK-32553          
1 62071U 24217Q   26166.09945840  .00021803  00000+0  65435-3 0  9991
2 62071  53.1602 100.8486 0001423  90.9827 269.1338 15.34408867 88393
STARLINK-32603          
1 62072U 24217R   26166.11208319  .00026068  00000+0  77992-3 0  9997
2 62072  53.1596 100.9190 0001164  88.8105 271.3031 15.34402486 88392
STARLINK-32444          
1 62073U 24217S   26166.08473547  .00021473  00000+0  64499-3 0  9994
2 62073  53.1611 100.7710 0002143  88.9693 271.1555 15.34392439 88348
STARLINK-32619          
1 62074U 24217T   26166.08683789  .00034058  00000+0  10140-2 0  9992
2 62074  53.1601 100.7666 0001454  75.4431 284.6733 15.34416157 88344
STARLINK-32580          
1 62075U 24217U   26166.10548174  .00020625  00000+0  70660-3 0  9993
2 62075  53.1608  88.8054 0001211 100.8152 259.2985 15.30197805 88511
STARLINK-32617          
1 62076U 24217V   26166.07910112  .00017949  00000+0  61669-3 0  9999
2 62076  53.1597  88.6401 0001059  97.5774 262.5347 15.30198442 88512
STARLINK-11384 [DTC]    
1 62088U 24220A   26165.93820947  .00146474  00000+0  11248-2 0  9999
2 62088  42.9989 177.2662 0001420 251.6333 108.4380 15.70843310 90340
STARLINK-11379 [DTC]    
1 62089U 24220B   26165.74217053  .00182441  00000+0  13819-2 0  9997
2 62089  43.0001 178.3750 0003462  56.5907 303.5292 15.71049680 90210
STARLINK-11387 [DTC]    
1 62090U 24220C   26165.73683537  .00188161  00000+0  14330-2 0  9996
2 62090  43.0048 178.3309 0001918 274.7620  85.3029 15.70904858 90313
STARLINK-11389 [DTC]    
1 62091U 24220D   26165.73152836  .00143366  00000+0  10959-2 0  9991
2 62091  42.9963 178.2948 0002473 260.2432  99.8156 15.70963147 90210
STARLINK-11388 [DTC]    
1 62092U 24220E   26166.00004630 -.00000209  00000+0  18701-5 0  9996
2 62092  42.9996 176.5959 0001775 260.0656 210.3733 15.70820337  6008
STARLINK-11345 [DTC]    
1 62093U 24220F   26165.33941130  .00167155  00000+0  12747-2 0  9991
2 62093  42.9984 180.5019 0000864 213.9568 146.1245 15.70941603 90158
STARLINK-11381 [DTC]    
1 62094U 24220G   26166.03350910  .00177846  00000+0  13612-2 0  9990
2 62094  42.9989 176.2433 0001376 249.9413 110.1307 15.70820078 90267
STARLINK-11369 [DTC]    
1 62095U 24220H   26165.32879206  .00190503  00000+0  14486-2 0  9991
2 62095  42.9984 180.4174 0002328 245.2868 114.7757 15.70933877 90253
STARLINK-11303 [DTC]    
1 62096U 24220J   26165.33336806 -.00148372  00000+0 -11709-2 0  9991
2 62096  42.9994 180.3187 0001534 267.5557 148.4756 15.70891953  5851
STARLINK-11367 [DTC]    
1 62097U 24220K   26166.14475414  .00006727  00000+0  55777-4 0  9991
2 62097  42.9993 175.3501 0001386 251.8928 108.1789 15.70882464 90386
STARLINK-11386 [DTC]    
1 62098U 24220L   26165.75795170  .00138019  00000+0  10611-2 0  9998
2 62098  42.9999 177.6072 0000719 254.7868 105.2920 15.70845952 90224
STARLINK-11380 [DTC]    
1 62099U 24220M   26165.94339130  .00146569  00000+0  11254-2 0  9993
2 62099  42.9986 176.4142 0001093 239.2683 120.8077 15.70846497 90259
STARLINK-33566          
1 62100U 24220N   26166.16668980 -.00013311  00000+0 -47490-3 0  9991
2 62100  43.0035   0.3393 0001766 273.1499 269.9694 15.27590332  5646
STARLINK-33545          
1 62101U 24220P   26165.85082332  .00015520  00000+0  57181-3 0  9998
2 62101  42.9899  16.5681 0001983 221.6567 138.4134 15.27607939 87884
STARLINK-33562          
1 62102U 24220Q   26165.86239862  .00015181  00000+0  55983-3 0  9993
2 62102  43.0047  16.6660 0002047 283.1628  76.8995 15.27592100 87886
STARLINK-33554          
1 62103U 24220R   26165.32388303  .00020619  00000+0  75645-3 0  9999
2 62103  42.9915  19.5106 0002544 278.5597  81.4967 15.27589254 87732
STARLINK-33555          
1 62104U 24220S   26165.88038826  .00025301  00000+0  92533-3 0  9991
2 62104  43.0112  16.8030 0000435 216.5098 143.5724 15.27596642 88028
