OBJECT_NAME,OBJECT_ID,EPOCH,MEAN_MOTION,ECCENTRICITY,INCLINATION,RA_OF_ASC_NODE,ARG_OF_PERICENTER,MEAN_ANOMALY,EPHEMERIS_TYPE,CLASSIFICATION_TYPE,NORAD_CAT_ID,ELEMENT_SET_NO,REV_AT_EPOCH,BSTAR,MEAN_MOTION_DOT,MEAN_MOTION_DDOT
STARLINK-11456 [DTC],2024-217H,2026-06-14T21:36:37.890720,15.69760497,.0001094,53.1582,311.8880,106.2907,253.8231,0,U,62064,999,9044,.10795E-2,.13258E-2,0
STARLINK-11474 [DTC],2024-217J,2026-06-14T16:40:23.526336,15.69720829,.00012976,53.1566,312.7354,86.0606,274.0561,0,U,62065,999,9041,.16805278E-2,.20829E-2,0
STARLINK-11463 [DTC],2024-217K,2026-06-15T02:25:49.005696,15.69720034,.0001197,53.1584,311.0152,73.8275,286.2874,0,U,62066,999,9047,.94498E-3,.115549E-2,0
STARLINK-11472 [DTC],2024-217L,2026-06-15T03:15:15.828768,15.69731206,.0000977,53.1580,311.2417,58.6212,301.4901,0,U,62067,999,9040,.10276E-2,.125914E-2,0
STARLINK-11467 [DTC],2024-217M,2026-06-14T21:43:41.608416,15.69774131,.0001078,53.1568,311.9234,118.5682,241.5445,0,U,62068,999,9044,.13259E-2,.163682E-2,0
STARLINK-11460 [DTC],2024-217N,2026-06-15T03:08:12.168960,15.69739292,.0000867,53.1571,311.2055,101.1404,258.9712,0,U,62069,999,9041,.18167E-2,.225872E-2,0
STARLINK-32604,2024-217P,2026-06-15T02:14:08.030400,15.34394449,.0001199,53.1597,100.8045,74.2570,285.8565,0,U,62070,999,8834,.993E-3,.33317E-3,0
STARLINK-32553,2024-217Q,2026-06-15T02:23:13.205760,15.34408867,.0001423,53.1602,100.8486,90.9827,269.1338,0,U,62071,999,8839,.65435E-3,.21803E-3,0
STARLINK-32603,2024-217R,2026-06-15T02:41:23.987616,15.34402486,.0001164,53.1596,100.9190,88.8105,271.3031,0,U,62072,999,8839,.77992E-3,.26068E-3,0
STARLINK-32444,2024-217S,2026-06-15T02:02:01.144608,15.34392439,.0002143,53.1611,100.7710,88.9693,271.1555,0,U,62073,999,8834,.64499E-3,.21473E-3,0
STARLINK-32619,2024-217T,2026-06-15T02:05:02.793696,15.34416157,.0001454,53.1601,100.7666,75.4431,284.6733,0,U,62074,999,8834,.1014E-2,.34058E-3,0
STARLINK-32580,2024-217U,2026-06-15T02:31:53.622336,15.30197805,.0001211,53.1608,88.8054,100.8152,259.2985,0,U,62075,999,8851,.7066E-3,.20625E-3,0
STARLINK-32617,2024-217V,2026-06-15T01:53:54.336768,15.30198442,.0001059,53.1597,88.6401,97.5774,262.5347,0,U,62076,999,8851,.61669E-3,.17949E-3,0
STARLINK-11384 [DTC],2024-220A,2026-06-14T22:31:01.298208,15.70843310,.000142,42.9989,177.2662,251.6333,108.4380,0,U,62088,999,9034,.11248E-2,.146474E-2,0
STARLINK-11379 [DTC],2024-220B,2026-06-14T17:48:43.533792,15.71049680,.00034628,43.0001,178.3750,56.5907,303.5292,0,U,62089,999,9021,.13818804E-2,.182441E-2,0
STARLINK-11387 [DTC],2024-220C,2026-06-14T17:41:02.575968,15.70904858,.00019181,43.0048,178.3309,274.7620,85.3029,0,U,62090,999,9031,.14330075E-2,.188161E-2,0
STARLINK-11389 [DTC],2024-220D,2026-06-14T17:33:24.050304,15.70963147,.00024739,42.9963,178.2948,260.2432,99.8156,0,U,62091,999,9021,.10958614E-2,.143366E-2,0
STARLINK-11388 [DTC],2024-220E,2026-06-15T00:00:04.000320,15.70820337,.0001775,42.9996,176.5959,260.0656,210.3733,0,U,62092,999,600,.18701E-5,-.209E-5,0
STARLINK-11345 [DTC],2024-220F,2026-06-14T08:08:45.136320,15.70941603,.00008648,42.9984,180.5019,213.9568,146.1245,0,U,62093,999,9015,.12747048E-2,.167155E-2,0
STARLINK-11381 [DTC],2024-220G,2026-06-15T00:48:15.186240,15.70820078,.0001376,42.9989,176.2433,249.9413,110.1307,0,U,62094,999,9026,.13612E-2,.177846E-2,0
STARLINK-11369 [DTC],2024-220H,2026-06-14T07:53:27.633984,15.70933877,.00023285,42.9984,180.4174,245.2868,114.7757,0,U,62095,999,9025,.14485784E-2,.190503E-2,0
STARLINK-11303 [DTC],2024-220J,2026-06-14T08:00:03.000384,15.70891953,.00015343,42.9994,180.3187,267.5557,148.4756,0,U,62096,999,585,-.11709325E-2,-.148372E-2,0
STARLINK-11367 [DTC],2024-220K,2026-06-15T03:28:26.757696,15.70882464,.0001386,42.9993,175.3501,251.8928,108.1789,0,U,62097,999,9038,.55777E-4,.6727E-4,0
STARLINK-11386 [DTC],2024-220L,2026-06-14T18:11:27.026880,15.70845952,.00007192,42.9999,177.6072,254.7868,105.2920,0,U,62098,999,9022,.10610808E-2,.138019E-2,0
STARLINK-11380 [DTC],2024-220M,2026-06-14T22:38:29.008320,15.70846497,.0001093,42.9986,176.4142,239.2683,120.8077,0,U,62099,999,9025,.11254E-2,.146569E-2,0
STARLINK-33566,2024-220N,2026-06-15T04:00:01.998720,15.27590332,.0001766,43.0035,0.3393,273.1499,269.9694,0,U,62100,999,564,-.4749E-3,-.13311E-3,0
STARLINK-33545,2024-220P,2026-06-14T20:25:11.134848,15.27607939,.00019832,42.9899,16.5681,221.6567,138.4134,0,U,62101,999,8788,.57181157E-3,.1552E-3,0
STARLINK-33562,2024-220Q,2026-06-14T20:41:51.240768,15.27592100,.00020477,43.0047,16.6660,283.1628,76.8995,0,U,62102,999,8788,.5598349E-3,.15181E-3,0
STARLINK-33554,2024-220R,2026-06-14T07:46:23.493792,15.27589254,.00025441,42.9915,19.5106,278.5597,81.4967,0,U,62103,999,8773,.7564544E-3,.20619E-3,0
STARLINK-33555,2024-220S,2026-06-14T21:07:45.545664,15.27596642,.00004352,43.0112,16.8030,216.5098,143.5724,0,U,62104,999,8802,.92533378E-3,.25301E-3,0
